NORAD_CAT_ID,OBJECT_NAME,OBJECT_TYPE,EPOCH,MEAN_MOTION,ECCENTRICITY,INCLINATION,RA_OF_ASC_NODE,ARG_OF_PERICENTER,MEAN_ANOMALY,BSTAR,MEAN_MOTION_DOT,MEAN_MOTION_DDOT,TLE_LINE0,TLE_LINE1,TLE_LINE2,SEMIMAJOR_AXIS,PERIOD,APOGEE,PERIGEE,DECAYED
52118.0,STARLINK-3743,PAYLOAD,2022-05-17 14:00:01,15.49790521,0.000161,53.2176,212.3238,44.8772,215.9436,-0.013413,-0.00695249,0.0,0 STARLINK-3743,1 52118U 22029AG  22137.58335648 -.00695249  00000-0 -13413-1 0  9999,2 52118  53.2176 212.3238 0001610  44.8772 215.9436 15.49790521  1301,6795.475,92.916,418.434,416.246,0.0
52118.0,STARLINK-3743,PAYLOAD,2022-05-17 20:00:01,15.49419092,0.0001615,53.2174,211.1295,46.576,169.61,-0.013995,-0.00723357,0.0,0 STARLINK-3743,1 52118U 22029AG  22137.83334491 -.00723357  00000-0 -13995-1 0  9999,2 52118  53.2174 211.1295 0001615  46.5760 169.6100 15.49419092 10607,6796.561,92.938,419.524,417.329,0.0
52118.0,STARLINK-3743,PAYLOAD,2022-05-17 22:00:01,15.49292344,0.0001419,53.2176,210.7311,47.2262,274.0919,-0.014085,-0.00724613,0.0,0 STARLINK-3743,1 52118U 22029AG  22137.91668981 -.00724613  00000-0 -14085-1 0  9999,2 52118  53.2176 210.7311 0001419  47.2262 274.0919 15.49292344  1305,6796.932,92.946,419.761,417.833,0.0
52118.0,STARLINK-3743,PAYLOAD,2022-05-18 14:00:01,15.48269905,0.0001827,53.2176,207.5532,31.7125,48.7032,-0.014509,-0.00720378,0.0,0 STARLINK-3743,1 52118U 22029AG  22138.58334491 -.00720378  00000-0 -14509-1 0  9994,2 52118  53.2176 207.5532 0001827  31.7125  48.7032 15.48269905  1301,6799.924,93.007,423.031,420.547,0.0
52118.0,STARLINK-3743,PAYLOAD,2022-05-18 20:00:01,15.47888311,0.00015,53.2174,206.361,38.7864,355.6833,-0.014729,-0.0072143,0.0,0 STARLINK-3743,1 52118U 22029AG  22138.83334491 -.00721430  00000-0 -14729-1 0  9996,2 52118  53.2174 206.3610 0001500  38.7864 355.6833 15.47888311 10764,6801.042,93.03,423.927,421.886,0.0
52118.0,STARLINK-3743,PAYLOAD,2022-05-18 22:00:00,15.47760364,0.0001624,53.2175,205.9636,41.3305,97.7477,-0.014772,-0.00720401,0.0,0 STARLINK-3743,1 52118U 22029AG  22138.91667824 -.00720401  00000-0 -14772-1 0  9999,2 52118  53.2175 205.9636 0001624  41.3305  97.7477 15.47760364  1300,6801.416,93.038,424.386,422.177,0.0
52118.0,STARLINK-3743,PAYLOAD,2022-05-19 14:00:01,15.46738747,0.0001624,53.2175,202.7929,47.2717,207.3559,-0.015241,-0.0071747,0.0,0 STARLINK-3743,1 52118U 22029AG  22139.58335648 -.00717470  00000-0 -15241-1 0  9993,2 52118  53.2175 202.7929 0001624  47.2717 207.3559 15.46738747  1301,6804.411,93.099,427.381,425.171,0.0
52118.0,STARLINK-3743,PAYLOAD,2022-05-19 22:00:00,15.46232137,0.0001568,53.2175,201.207,40.5037,270.8828,-0.01565,-0.007234,0.0,0 STARLINK-3743,1 52118U 22029AG  22139.91667824 -.00723400  00000-0 -15650-1 0  9998,2 52118  53.2175 201.2070 0001568  40.5037 270.8828 15.46232137 10935,6805.897,93.13,428.829,426.695,0.0
52118.0,STARLINK-3743,PAYLOAD,2022-05-20 14:00:01,15.45208354,0.0001539,53.2174,198.0438,40.5896,22.606,-0.016061,-0.0071711,0.0,0 STARLINK-3743,1 52118U 22029AG  22140.58334491 -.00717110  00000-0 -16061-1 0  9992,2 52118  53.2174 198.0438 0001539  40.5896  22.6060 15.45208354  1301,6808.903,93.191,431.816,429.72,0.0
52118.0,STARLINK-3743,PAYLOAD,2022-05-20 22:00:00,15.44699229,0.0001791,53.2174,196.4614,33.5815,84.5997,-0.016363,-0.00717913,0.0,0 STARLINK-3743,1 52118U 22029AG  22140.91667824 -.00717913  00000-0 -16363-1 0  9994,2 52118  53.2174 196.4614 0001791  33.5815  84.5997 15.44699229  1302,6810.399,93.222,433.484,431.044,0.0
52118.0,STARLINK-3743,PAYLOAD,2022-05-21 06:00:00,15.44189889,0.0001924,53.2175,194.8821,35.6032,136.9501,-0.016676,-0.00718947,0.0,0 STARLINK-3743,1 52118U 22029AG  22141.25001157 -.00718947  00000-0 -16676-1 0  9998,2 52118  53.2175 194.8821 0001924  35.6032 136.9501 15.44189889 11138,6811.896,93.253,435.072,432.451,0.0
52118.0,STARLINK-3743,PAYLOAD,2022-05-21 14:00:01,15.43676587,0.0001730999999999,53.2175,193.3054,42.168,184.2094,-0.0168229999999999,-0.00713129,0.0,0 STARLINK-3743,1 52118U 22029AG  22141.58335648 -.00713129  00000-0 -16823-1 0  9990,2 52118  53.2175 193.3054 0001731  42.1680 184.2094 15.43676587  1304,6813.406,93.284,436.451,434.092,0.0
52118.0,STARLINK-3743,PAYLOAD,2022-05-21 22:00:00,15.43170469,0.0001759,53.2176,191.7265,36.3139,243.1458,-0.017282,-0.00719588,0.0,0 STARLINK-3743,1 52118U 22029AG  22141.91667824 -.00719588  00000-0 -17282-1 0  9996,2 52118  53.2176 191.7265 0001759  36.3139 243.1458 15.43170469  1302,6814.896,93.314,437.96,435.562,0.0
52118.0,STARLINK-3743,PAYLOAD,2022-05-22 06:00:00,15.42661606,0.0001754999999999,53.2178,190.1512,34.1256,297.8673,-0.01763,-0.00721396,0.0,0 STARLINK-3743,1 52118U 22029AG  22142.25001157 -.00721396  00000-0 -17630-1 0  9992,2 52118  53.2178 190.1512 0001755  34.1256 297.8673 15.42661606 11295,6816.395,93.345,439.456,437.06300000000016,0.0
52118.0,STARLINK-3743,PAYLOAD,2022-05-22 14:00:01,15.42148733,0.0001486999999999,53.2175,188.5781,41.4781,342.4361,-0.017805,-0.00716414,0.0,0 STARLINK-3743,1 52118U 22029AG  22142.58334491 -.00716414  00000-0 -17805-1 0  9997,2 52118  53.2175 188.5781 0001487  41.4781 342.4361 15.42148733  1300,6817.906,93.376,440.785,438.757,0.0
52118.0,STARLINK-3743,PAYLOAD,2022-05-22 22:00:01,15.41639073,0.0001784,53.2176,187.0028,30.7704,44.5176,-0.018135,-0.00717277,0.0,0 STARLINK-3743,1 52118U 22029AG  22142.91668981 -.00717277  00000-0 -18135-1 0  9993,2 52118  53.2176 187.0028 0001784  30.7704  44.5176 15.41639073  1300,6819.408,93.407,442.49,440.057,0.0
52118.0,STARLINK-3743,PAYLOAD,2022-05-23 14:00:01,15.40616439,0.0001686999999999,53.2173,183.8615,43.834,132.1679,-0.018623,-0.00712205,0.0,0 STARLINK-3743,1 52118U 22029AG  22143.58334491 -.00712205  00000-0 -18623-1 0  9991,2 52118  53.2173 183.8615 0001687  43.8340 132.1679 15.40616439 11499,6822.426,93.469,445.442,443.14,0.0
52118.0,STARLINK-3743,PAYLOAD,2022-05-23 22:00:01,15.40108861,0.0001803,53.2174,182.2897,38.7343,186.8021,-0.019048,-0.00715979,0.0,0 STARLINK-3743,1 52118U 22029AG  22143.91668981 -.00715979  00000-0 -19048-1 0  9995,2 52118  53.2174 182.2897 0001803  38.7343 186.8021 15.40108861  1302,6823.925,93.5,447.02,444.559,0.0
52118.0,STARLINK-3743,PAYLOAD,2022-05-24 03:15:19,15.40890171,0.0001691,53.2159,181.2481,59.9596,300.1578,-0.0076382,-0.00306591,0.0,0 STARLINK-3743,1 52118U 22029AG  22144.13563669 -.00306591  00000-0 -76382-2 0  9998,2 52118  53.2159 181.2481 0001691  59.9596 300.1578 15.40890171 11584,6821.618,93.452,444.636,442.329,0.0
52118.0,STARLINK-3743,PAYLOAD,2022-05-24 12:36:18,15.40209078,0.0001756,53.2148,179.4173,55.9158,304.2014,-0.0081899,-0.00320779,0.0,0 STARLINK-3743,1 52118U 22029AG  22144.52521415 -.00320779  00000-0 -81899-2 0  9997,2 52118  53.2148 179.4173 0001756  55.9158 304.2014 15.40209078 11648,6823.629,93.494,446.692,444.295,0.0
52118.0,STARLINK-3743,PAYLOAD,2022-05-24 22:00:00,15.38578547,0.0001595999999999,53.2174,177.588,35.6573,334.5486,-0.02003,-0.00715756,0.0,0 STARLINK-3743,1 52118U 22029AG  22144.91667824 -.00715756  00000-0 -20030-1 0  9997,2 52118  53.2174 177.5880 0001596  35.6573 334.5486 15.38578547 11702,6828.449000000001,93.593,451.404,449.224,0.0
52118.0,STARLINK-3743,PAYLOAD,2022-05-25 14:00:01,15.37559269,0.0001583,53.2172,174.4614,41.5889,62.0403,-0.020719,-0.0071604,0.0,0 STARLINK-3743,1 52118U 22029AG  22145.58334491 -.00716040  00000-0 -20719-1 0  9993,2 52118  53.2172 174.4614 0001583  41.5889  62.0403 15.37559269  1309,6831.465999999999,93.655,454.413,452.25,0.0
52118.0,STARLINK-3743,PAYLOAD,2022-05-25 20:00:01,15.37177827,0.0001657,53.2175,173.2879,35.2209,12.8115,-0.021057,-0.00718536,0.0,0 STARLINK-3743,1 52118U 22029AG  22145.83334491 -.00718536  00000-0 -21057-1 0  9999,2 52118  53.2175 173.2879 0001657  35.2209  12.8115 15.37177827 11849,6832.596,93.678,455.594,453.329,0.0
52118.0,STARLINK-3743,PAYLOAD,2022-05-25 22:00:00,15.37049213,0.0001773,53.2173,172.8971,37.7633,111.6605,-0.021076,-0.00716372,0.0,0 STARLINK-3743,1 52118U 22029AG  22145.91667824 -.00716372  00000-0 -21076-1 0  9994,2 52118  53.2173 172.8971 0001773  37.7633 111.6605 15.37049213  1301,6832.978,93.686,456.054,453.631,0.0
52118.0,STARLINK-3743,PAYLOAD,2022-05-26 05:09:57,15.37850204,0.0001278,53.2146,171.49200000000005,83.0321,277.0829,-0.0059207,-0.00217606,0.0,0 STARLINK-3743,1 52118U 22029AG  22146.21524763 -.00217606  00000-0 -59207-2 0  9996,2 52118  53.2146 171.4920 0001278  83.0321 277.0829 15.37850204 11900,6830.605,93.637,453.343,451.597,0.0
52118.0,STARLINK-3743,PAYLOAD,2022-05-26 12:00:00,15.36153743,0.0001705,53.2174,170.1678,42.8001,95.2875,-0.021539,-0.00711525,0.0,0 STARLINK-3743,1 52118U 22029AG  22146.50001157 -.00711525  00000-0 -21539-1 0  9990,2 52118  53.2174 170.1678 0001705  42.8001  95.2875 15.36153743 11948,6835.6330000000025,93.741,458.663,456.332,0.0
52118.0,STARLINK-3743,PAYLOAD,2022-05-26 14:00:01,15.360305,0.0001618,53.2171,169.7776,47.5597,191.6106,-0.021834,-0.00717873,0.0,0 STARLINK-3743,1 52118U 22029AG  22146.58334491 -.00717873  00000-0 -21834-1 0  9998,2 52118  53.2171 169.7776 0001618  47.5597 191.6106 15.36030500  1305,6835.998000000001,93.748,458.969,456.757,0.0
52118.0,STARLINK-3743,PAYLOAD,2022-05-26 22:00:00,15.3551849,0.0001605,53.2174,168.2169,43.4506,239.6767,-0.02209,-0.00714648,0.0,0 STARLINK-3743,1 52118U 22029AG  22146.91667824 -.00714648  00000-0 -22090-1 0  9996,2 52118  53.2174 168.2169 0001605  43.4506 239.6767 15.35518490  1303,6837.518,93.779,460.48,458.285,0.0
52118.0,STARLINK-3743,PAYLOAD,2022-05-27 01:27:47,15.36849801,0.0001083,53.2155,167.5339,52.1834,307.9268,-0.0056384999999999,-0.00201067,0.0,0 STARLINK-3743,1 52118U 22029AG  22147.06096601 -.00201067  00000-0 -56385-2 0  9993,2 52118  53.2155 167.5339 0001083  52.1834 307.9268 15.36849801 12035,6833.569,93.698,456.174,454.694,0.0
